{
  "type": "FeatureCollection",
  "features": [
    {
      "type": "Feature",
      "properties": {
        "norad_id": 38159,
        "name": "FENGYUN 1C DEB",
        "group": "fengyun-1c-debris",
        "lat": -60.64781804088425,
        "lon": 44.415888971867325,
        "alt_km": 889.2096700944712,
        "timestamp": "2025-12-15T15:53:20.140345+00:00",
        "meta_object_name": "FENGYUN 1C DEB",
        "meta_object_id": "1999-025ERG",
        "meta_epoch": "2025-12-04T22:05:20.152032",
        "meta_mean_motion": 14.03448484,
        "meta_eccentricity": 0.005704,
        "meta_inclination": 99.3156,
        "meta_ra_of_asc_node": 230.39,
        "meta_arg_of_pericenter": 2.347,
        "meta_mean_anomaly": 357.7952,
        "meta_ephemeris_type": 0,
        "meta_classification_type": "U",
        "meta_norad_cat_id": 38159,
        "meta_element_set_no": 999,
        "meta_rev_at_epoch": 83002,
        "meta_bstar": 0.0010527,
        "meta_mean_motion_dot": 1.625e-05,
        "meta_mean_motion_ddot": 0,
        "tle_line1": "1 38159U 99025ERG 25338.92037213  .00001625  00000+0  10527-2 0  9999",
        "tle_line2": "2 38159  99.3156 230.3900 0057040   2.3470 357.7952 14.03448484830021"
      },
      "geometry": {
        "type": "Point",
        "coordinates": [
          44.415888971867325,
          -60.64781804088425
        ]
      }
    },
    {
      "type": "Feature",
      "properties": {
        "norad_id": 38163,
        "name": "FENGYUN 1C DEB",
        "group": "fengyun-1c-debris",
        "lat": -8.249192734613654,
        "lon": -155.12217634790906,
        "alt_km": 838.6943360766336,
        "timestamp": "2025-12-15T15:53:20.140354+00:00",
        "meta_object_name": "FENGYUN 1C DEB",
        "meta_object_id": "1999-025ERL",
        "meta_epoch": "2025-12-14T08:14:45.123648",
        "meta_mean_motion": 14.0591951,
        "meta_eccentricity": 0.00760344,
        "meta_inclination": 99.1284,
        "meta_ra_of_asc_node": 24.8853,
        "meta_arg_of_pericenter": 237.8552,
        "meta_mean_anomaly": 121.5222,
        "meta_ephemeris_type": 0,
        "meta_classification_type": "U",
        "meta_norad_cat_id": 38163,
        "meta_element_set_no": 999,
        "meta_rev_at_epoch": 24564,
        "meta_bstar": 0.00090398926,
        "meta_mean_motion_dot": 1.473e-05,
        "meta_mean_motion_ddot": 0,
        "tle_line1": "1 38163U 99025ERL 25348.34357782  .00001473  00000+0  90399-3 0  9994",
        "tle_line2": "2 38163  99.1284  24.8853 0076034 237.8552 121.5222 14.05919510245649"
      },
      "geometry": {
        "type": "Point",
        "coordinates": [
          -155.12217634790906,
          -8.249192734613654
        ]
      }
    },
    {
      "type": "Feature",
      "properties": {
        "norad_id": 38166,
        "name": "FENGYUN 1C DEB",
        "group": "fengyun-1c-debris",
        "lat": -28.189746478512774,
        "lon": 97.7838131801922,
        "alt_km": 778.0273619901518,
        "timestamp": "2025-12-15T15:53:20.140363+00:00",
        "meta_object_name": "FENGYUN 1C DEB",
        "meta_object_id": "1999-025ERP",
        "meta_epoch": "2025-12-14T13:10:17.914944",
        "meta_mean_motion": 14.30977629,
        "meta_eccentricity": 0.00521977,
        "meta_inclination": 99.0775,
        "meta_ra_of_asc_node": 91.7062,
        "meta_arg_of_pericenter": 39.4294,
        "meta_mean_anomaly": 321.0668,
        "meta_ephemeris_type": 0,
        "meta_classification_type": "U",
        "meta_norad_cat_id": 38166,
        "meta_element_set_no": 999,
        "meta_rev_at_epoch": 63798,
        "meta_bstar": 0.0021276136,
        "meta_mean_motion_dot": 5.636e-05,
        "meta_mean_motion_ddot": 0,
        "tle_line1": "1 38166U 99025ERP 25348.54881846  .00005636  00000+0  21276-2 0  9994",
        "tle_line2": "2 38166  99.0775  91.7062 0052197  39.4294 321.0668 14.30977629637980"
      },
      "geometry": {
        "type": "Point",
        "coordinates": [
          97.7838131801922,
          -28.189746478512774
        ]
      }
    },
    {
      "type": "Feature",
      "properties": {
        "norad_id": 38169,
        "name": "FENGYUN 1C DEB",
        "group": "fengyun-1c-debris",
        "lat": 3.9763871237594435,
        "lon": 144.80804790258554,
        "alt_km": 668.6888915472955,
        "timestamp": "2025-12-15T15:53:20.140372+00:00",
        "meta_object_name": "FENGYUN 1C DEB",
        "meta_object_id": "1999-025ERS",
        "meta_epoch": "2025-12-14T16:14:51.168768",
        "meta_mean_motion": 14.71458506,
        "meta_eccentricity": 0.00317287,
        "meta_inclination": 98.9787,
        "meta_ra_of_asc_node": 323.0928,
        "meta_arg_of_pericenter": 62.3622,
        "meta_mean_anomaly": 298.0796,
        "meta_ephemeris_type": 0,
        "meta_classification_type": "U",
        "meta_norad_cat_id": 38169,
        "meta_element_set_no": 999,
        "meta_rev_at_epoch": 61297,
        "meta_bstar": 0.0022683852,
        "meta_mean_motion_dot": 0.0001414,
        "meta_mean_motion_ddot": 0,
        "tle_line1": "1 38169U 99025ERS 25348.67698112  .00014140  00000+0  22684-2 0  9997",
        "tle_line2": "2 38169  98.9787 323.0928 0031728  62.3622 298.0796 14.71458506612973"
      },
      "geometry": {
        "type": "Point",
        "coordinates": [
          144.80804790258554,
          3.9763871237594435
        ]
      }
    },
    {
      "type": "Feature",
      "properties": {
        "norad_id": 38173,
        "name": "FENGYUN 1C DEB",
        "group": "fengyun-1c-debris",
        "lat": 48.44828755504212,
        "lon": 80.31407274242031,
        "alt_km": 659.0576558717858,
        "timestamp": "2025-12-15T15:53:20.140381+00:00",
        "meta_object_name": "FENGYUN 1C DEB",
        "meta_object_id": "1999-025ERW",
        "meta_epoch": "2025-12-08T11:11:29.864832",
        "meta_mean_motion": 14.37138135,
        "meta_eccentricity": 0.01627901,
        "meta_inclination": 98.9997,
        "meta_ra_of_asc_node": 242.4873,
        "meta_arg_of_pericenter": 125.1423,
        "meta_mean_anomaly": 236.5139,
        "meta_ephemeris_type": 0,
        "meta_classification_type": "U",
        "meta_norad_cat_id": 38173,
        "meta_element_set_no": 999,
        "meta_rev_at_epoch": 60582,
        "meta_bstar": 0.0013067614,
        "meta_mean_motion_dot": 4.475e-05,
        "meta_mean_motion_ddot": 0,
        "tle_line1": "1 38173U 99025ERW 25342.46631788  .00004475  00000+0  13068-2 0  9995",
        "tle_line2": "2 38173  98.9997 242.4873 0162790 125.1423 236.5139 14.37138135605824"
      },
      "geometry": {
        "type": "Point",
        "coordinates": [
          80.31407274242031,
          48.44828755504212
        ]
      }
    },
    {
      "type": "Feature",
      "properties": {
        "norad_id": 38493,
        "name": "FENGYUN 1C DEB",
        "group": "fengyun-1c-debris",
        "lat": -80.79625448946952,
        "lon": 48.16360231123129,
        "alt_km": 760.1115032549469,
        "timestamp": "2025-12-15T15:53:20.140390+00:00",
        "meta_object_name": "FENGYUN 1C DEB",
        "meta_object_id": "1999-025ESC",
        "meta_epoch": "2025-12-13T14:58:26.647392",
        "meta_mean_motion": 13.62319496,
        "meta_eccentricity": 0.04264901,
        "meta_inclination": 99.0796,
        "meta_ra_of_asc_node": 306.9671,
        "meta_arg_of_pericenter": 242.9047,
        "meta_mean_anomaly": 112.7989,
        "meta_ephemeris_type": 0,
        "meta_classification_type": "U",
        "meta_norad_cat_id": 38493,
        "meta_element_set_no": 999,
        "meta_rev_at_epoch": 56510,
        "meta_bstar": 0.00047974908,
        "meta_mean_motion_dot": 6.42e-06,
        "meta_mean_motion_ddot": 0,
        "tle_line1": "1 38493U 99025ESC 25347.62391953  .00000642  00000+0  47975-3 0  9997",
        "tle_line2": "2 38493  99.0796 306.9671 0426490 242.9047 112.7989 13.62319496565102"
      },
      "geometry": {
        "type": "Point",
        "coordinates": [
          48.16360231123129,
          -80.79625448946952
        ]
      }
    },
    {
      "type": "Feature",
      "properties": {
        "norad_id": 38494,
        "name": "FENGYUN 1C DEB",
        "group": "fengyun-1c-debris",
        "lat": -39.65407382531535,
        "lon": -53.287539811452945,
        "alt_km": 681.5413879082516,
        "timestamp": "2025-12-15T15:53:20.140399+00:00",
        "meta_object_name": "FENGYUN 1C DEB",
        "meta_object_id": "1999-025ESD",
        "meta_epoch": "2025-12-14T02:20:27.273696",
        "meta_mean_motion": 14.00256217,
        "meta_eccentricity": 0.03869967,
        "meta_inclination": 98.4327,
        "meta_ra_of_asc_node": 298.2023,
        "meta_arg_of_pericenter": 5.0775,
        "meta_mean_anomaly": 355.4145,
        "meta_ephemeris_type": 0,
        "meta_classification_type": "U",
        "meta_norad_cat_id": 38494,
        "meta_element_set_no": 999,
        "meta_rev_at_epoch": 7173,
        "meta_bstar": 0.0057112975,
        "meta_mean_motion_dot": 0.00016196,
        "meta_mean_motion_ddot": 0,
        "tle_line1": "1 38494U 99025ESD 25348.09753789  .00016196  00000+0  57113-2 0  9994",
        "tle_line2": "2 38494  98.4327 298.2023 0386996   5.0775 355.4145 14.00256217 71737"
      },
      "geometry": {
        "type": "Point",
        "coordinates": [
          -53.287539811452945,
          -39.65407382531535
        ]
      }
    }
  ]
}